OBJECT_NAME,OBJECT_ID,EPOCH,MEAN_MOTION,ECCENTRICITY,INCLINATION,RA_OF_ASC_NODE,ARG_OF_PERICENTER,MEAN_ANOMALY,EPHEMERIS_TYPE,CLASSIFICATION_TYPE,NORAD_CAT_ID,ELEMENT_SET_NO,REV_AT_EPOCH,BSTAR,MEAN_MOTION_DOT,MEAN_MOTION_DDOT
GOMX-1,2013-066Q,2026-07-17T14:56:16.558368,14.69545680,.0128023,97.6461,37.1641,340.3926,19.2381,0,U,39430,999,67438,.98269E-4,.608E-5,0
CUBEBUG-2 (LO-74),2013-066AA,2026-07-17T14:33:09.187776,14.93976531,.0055601,97.8919,147.7205,287.2018,72.3120,0,U,39440,999,68153,.18322E-3,.1948E-4,0
NEE-02 KRYSAOR,2013-066AB,2026-07-17T07:03:47.947680,14.86744048,.0065226,97.8897,137.2978,332.3487,27.4265,0,U,39441,999,68067,.12208E-3,.1069E-4,0
FUNCUBE-1 (AO-73),2013-066AE,2026-07-17T08:19:54.611040,15.09834376,.0037942,97.8294,170.4330,100.7078,259.8426,0,U,39444,999,68421,.25766E-3,.4168E-4,0
UWE-3,2013-066AG,2026-07-17T08:36:26.489088,14.97207851,.0047589,97.8718,154.6426,217.0557,142.7376,0,U,39446,999,68209,.17893E-3,.2054E-4,0
SMDC ONE 2.4,2013-072H,2026-07-17T05:24:50.551776,15.18851137,.0148166,120.4891,108.1141,50.6248,310.7847,0,U,39469,999,12239,.34857E-3,.9384E-4,0
COSMOS 2488 (RODNIK-S 7),2013-076A,2026-07-17T16:57:39.365568,12.42906112,.0020512,82.4862,149.6826,32.3351,327.8981,0,U,39483,999,56968,-.12861E-3,-.8E-7,0
COSMOS 2489 (RODNIK-S 8),2013-076B,2026-07-17T16:22:52.251744,12.42880181,.0022336,82.4897,151.0864,32.0641,328.1792,0,U,39484,999,56973,.30123E-3,.52E-6,0
COSMOS 2490 (RODNIK-S 9),2013-076C,2026-07-17T17:38:21.930720,12.42879114,.0022744,82.4845,149.1079,46.8662,313.4314,0,U,39485,999,56967,.24314E-3,.44E-6,0
KAZEOSAT 1,2014-024A,2026-07-17T16:33:42.770304,14.42038061,.0001215,98.3196,270.3763,82.8781,277.2547,0,U,39731,999,64295,.44979E-4,.105E-5,0
COSMOS 2496 (RODNIK-S 10),2014-028A,2026-07-17T16:37:07.917600,12.42880035,.0020746,82.4450,89.6255,15.6530,344.5186,0,U,39761,999,55130,.11964E-2,.176E-5,0
COSMOS 2497 (RODNIK-S 11),2014-028B,2026-07-17T16:00:58.616640,12.42895991,.0021232,82.4500,91.3429,10.7600,349.3929,0,U,39762,999,55130,.16031E-2,.232E-5,0
COSMOS 2498 (RODNIK-S 12),2014-028C,2026-07-17T17:21:35.875296,12.42981294,.0021941,82.4458,89.7814,10.1445,350.0073,0,U,39763,999,55134,.73934E-3,.112E-5,0
HODOYOSHI-4,2014-033B,2026-07-17T18:17:28.421664,14.88191706,.0022836,97.5457,22.1106,200.7708,159.2583,0,U,40011,999,65335,.21203E-4,.144E-5,0
UNISAT-6,2014-033C,2026-07-17T06:04:05.500416,14.88371050,.0044023,97.7911,350.4435,330.8621,29.0140,0,U,40012,999,65063,.1175E-3,.105E-4,0
DEIMOS-2,2014-033D,2026-07-17T17:29:46.470048,14.93798461,.0001209,97.5781,72.1393,110.4879,249.6471,0,U,40013,999,64228,.74184E-4,.732E-5,0
BUGSAT-1 (TITA),2014-033E,2026-07-17T17:36:00.453312,15.15898471,.0028912,98.0434,293.0756,77.4709,282.9754,0,U,40014,999,66046,.18071E-3,.342E-4,0
SAUDISAT 4,2014-033G,2026-07-17T08:22:18.640704,14.79576785,.004407,97.7621,343.4471,336.9897,22.9340,0,U,40016,999,65053,.35798E-4,.22E-5,0
APRIZESAT 9,2014-033J,2026-07-17T08:14:24.599328,14.74254170,.0067487,97.9097,330.8108,103.1795,257.6955,0,U,40018,999,64800,.50835E-4,.296E-5,0
BRITE-CA1 (TORONTO),2014-033L,2026-07-16T22:23:37.947840,14.72724463,.0078575,97.9774,326.3188,180.6925,179.4187,0,U,40020,999,64659,.8359E-4,.506E-5,0
DUCHIFAT-1,2014-033M,2026-07-16T16:46:11.491104,15.71313651,.00027866,98.0414,261.1627,236.8489,123.2505,0,U,40021,999,66037,.77546207E-3,.99153E-3,0
NANOSATC-BR1,2014-033Q,2026-07-17T01:20:30.963552,15.32365382,.0005253,98.0704,233.1102,91.9307,268.2534,0,U,40024,999,65855,.32893482E-3,.10197E-3,0
